[{"OBJECT_NAME":"COSMOS 2251 DEB","OBJECT_ID":"1993-036AZN","EPOCH":"2026-03-02T05:38:51.638496","MEAN_MOTION":14.74668848,"ECCENTRICITY":0.01368234,"INCLINATION":73.9721,"RA_OF_ASC_NODE":358.8199,"ARG_OF_PERICENTER":155.4351,"MEAN_ANOMALY":205.3425,"EPHEMERIS_TYPE":0,"CLASSIFICATION_TYPE":"U","NORAD_CAT_ID":36385,"ELEMENT_SET_NO":999,"REV_AT_EPOCH":86273,"BSTAR":0.0014679328,"MEAN_MOTION_DOT":0.00011387,"MEAN_MOTION_DDOT":0},{"OBJECT_NAME":"COSMOS 2251 DEB","OBJECT_ID":"1993-036AZT","EPOCH":"2026-02-24T22:09:40.278240","MEAN_MOTION":14.36981066,"ECCENTRICITY":0.0018984,"INCLINATION":74.038,"RA_OF_ASC_NODE":139.1041,"ARG_OF_PERICENTER":216.5958,"MEAN_ANOMALY":264.2372,"EPHEMERIS_TYPE":0,"CLASSIFICATION_TYPE":"U","NORAD_CAT_ID":36420,"ELEMENT_SET_NO":999,"REV_AT_EPOCH":86102,"BSTAR":0.00011767,"MEAN_MOTION_DOT":3.23e-6,"MEAN_MOTION_DDOT":0},{"OBJECT_NAME":"COSMOS 2251 DEB","OBJECT_ID":"1993-036BAD","EPOCH":"2026-02-12T13:05:19.375296","MEAN_MOTION":14.27947772,"ECCENTRICITY":0.0095242,"INCLINATION":74.0059,"RA_OF_ASC_NODE":356.3216,"ARG_OF_PERICENTER":132.6405,"MEAN_ANOMALY":228.2823,"EPHEMERIS_TYPE":0,"CLASSIFICATION_TYPE":"U","NORAD_CAT_ID":36430,"ELEMENT_SET_NO":999,"REV_AT_EPOCH":65439,"BSTAR":0.00034418,"MEAN_MOTION_DOT":8.7e-6,"MEAN_MOTION_DDOT":0},{"OBJECT_NAME":"COSMOS 2251 DEB","OBJECT_ID":"1993-036BAL","EPOCH":"2026-02-27T20:14:18.970368","MEAN_MOTION":14.72362202,"ECCENTRICITY":0.00207754,"INCLINATION":73.9386,"RA_OF_ASC_NODE":243.2715,"ARG_OF_PERICENTER":92.2001,"MEAN_ANOMALY":268.155,"EPHEMERIS_TYPE":0,"CLASSIFICATION_TYPE":"U","NORAD_CAT_ID":36437,"ELEMENT_SET_NO":999,"REV_AT_EPOCH":67185,"BSTAR":0.0014151034,"MEAN_MOTION_DOT":8.967e-5,"MEAN_MOTION_DDOT":0},{"OBJECT_NAME":"COSMOS 2251 DEB","OBJECT_ID":"1993-036BAN","EPOCH":"2026-03-02T07:40:43.842432","MEAN_MOTION":13.4809569,"ECCENTRICITY":0.04260445,"INCLINATION":73.9671,"RA_OF_ASC_NODE":269.6643,"ARG_OF_PERICENTER":226.2068,"MEAN_ANOMALY":130.3061,"EPHEMERIS_TYPE":0,"CLASSIFICATION_TYPE":"U","NORAD_CAT_ID":36439,"ELEMENT_SET_NO":999,"REV_AT_EPOCH":59685,"BSTAR":0.00087756968,"MEAN_MOTION_DOT":9.23e-6,"MEAN_MOTION_DDOT":0},{"OBJECT_NAME":"COSMOS 2251 DEB","OBJECT_ID":"1993-036BAQ","EPOCH":"2026-03-02T18:09:22.308480","MEAN_MOTION":15.08453793,"ECCENTRICITY":0.0108476,"INCLINATION":73.8355,"RA_OF_ASC_NODE":183.1226,"ARG_OF_PERICENTER":266.0547,"MEAN_ANOMALY":92.8237,"EPHEMERIS_TYPE":0,"CLASSIFICATION_TYPE":"U","NORAD_CAT_ID":36441,"ELEMENT_SET_NO":999,"REV_AT_EPOCH":88171,"BSTAR":0.00067126775,"MEAN_MOTION_DOT":0.00011967,"MEAN_MOTION_DDOT":0},{"OBJECT_NAME":"COSMOS 2251 DEB","OBJECT_ID":"1993-036BBA","EPOCH":"2026-03-03T00:41:16.231776","MEAN_MOTION":14.19093887,"ECCENTRICITY":0.0184715,"INCLINATION":73.9545,"RA_OF_ASC_NODE":191.0672,"ARG_OF_PERICENTER":356.809,"MEAN_ANOMALY":3.1857,"EPHEMERIS_TYPE":0,"CLASSIFICATION_TYPE":"U","NORAD_CAT_ID":36451,"ELEMENT_SET_NO":999,"REV_AT_EPOCH":85364,"BSTAR":0.00088602,"MEAN_MOTION_DOT":2.169e-5,"MEAN_MOTION_DDOT":0},{"OBJECT_NAME":"COSMOS 2251 DEB","OBJECT_ID":"1993-036BBC","EPOCH":"2026-03-02T19:50:43.240704","MEAN_MOTION":14.53346056,"ECCENTRICITY":0.0072175,"INCLINATION":73.9271,"RA_OF_ASC_NODE":0.229,"ARG_OF_PERICENTER":246.1789,"MEAN_ANOMALY":143.6734,"EPHEMERIS_TYPE":0,"CLASSIFICATION_TYPE":"U","NORAD_CAT_ID":36453,"ELEMENT_SET_NO":999,"REV_AT_EPOCH":85631,"BSTAR":0.0010673328,"MEAN_MOTION_DOT":4.564e-5,"MEAN_MOTION_DDOT":0},{"OBJECT_NAME":"COSMOS 2251 DEB","OBJECT_ID":"1993-036BBJ","EPOCH":"2026-02-26T03:21:02.988288","MEAN_MOTION":14.26981616,"ECCENTRICITY":0.01151542,"INCLINATION":74.0464,"RA_OF_ASC_NODE":223.5036,"ARG_OF_PERICENTER":301.5673,"MEAN_ANOMALY":57.4272,"EPHEMERIS_TYPE":0,"CLASSIFICATION_TYPE":"U","NORAD_CAT_ID":36459,"ELEMENT_SET_NO":999,"REV_AT_EPOCH":8957,"BSTAR":0.0012579512,"MEAN_MOTION_DOT":3.257e-5,"MEAN_MOTION_DDOT":0},{"OBJECT_NAME":"COSMOS 2251 DEB","OBJECT_ID":"1993-036BBV","EPOCH":"2026-02-27T18:16:57.594144","MEAN_MOTION":15.17732907,"ECCENTRICITY":0.00280345,"INCLINATION":73.8349,"RA_OF_ASC_NODE":92.9986,"ARG_OF_PERICENTER":278.5786,"MEAN_ANOMALY":81.2232,"EPHEMERIS_TYPE":0,"CLASSIFICATION_TYPE":"U","NORAD_CAT_ID":36470,"ELEMENT_SET_NO":999,"REV_AT_EPOCH":67258,"BSTAR":0.0034538195,"MEAN_MOTION_DOT":0.00071068,"MEAN_MOTION_DDOT":0},{"OBJECT_NAME":"COSMOS 2251 DEB","OBJECT_ID":"1993-036BCN","EPOCH":"2026-02-16T14:27:48.280896","MEAN_MOTION":14.30929428,"ECCENTRICITY":0.0082039,"INCLINATION":74.0163,"RA_OF_ASC_NODE":25.1656,"ARG_OF_PERICENTER":57.9736,"MEAN_ANOMALY":302.935,"EPHEMERIS_TYPE":0,"CLASSIFICATION_TYPE":"U","NORAD_CAT_ID":36528,"ELEMENT_SET_NO":999,"REV_AT_EPOCH":65369,"BSTAR":0.00053556,"MEAN_MOTION_DOT":1.435e-5,"MEAN_MOTION_DDOT":0},{"OBJECT_NAME":"COSMOS 2251 DEB","OBJECT_ID":"1993-036BCT","EPOCH":"2026-03-03T03:46:09.668640","MEAN_MOTION":14.50120676,"ECCENTRICITY":0.0046908,"INCLINATION":74.013,"RA_OF_ASC_NODE":323.5926,"ARG_OF_PERICENTER":93.4986,"MEAN_ANOMALY":267.1542,"EPHEMERIS_TYPE":0,"CLASSIFICATION_TYPE":"U","NORAD_CAT_ID":36533,"ELEMENT_SET_NO":999,"REV_AT_EPOCH":85650,"BSTAR":0.00042312,"MEAN_MOTION_DOT":1.638e-5,"MEAN_MOTION_DDOT":0},{"OBJECT_NAME":"COSMOS 2251 DEB","OBJECT_ID":"1993-036BCZ","EPOCH":"2026-03-02T22:20:53.993472","MEAN_MOTION":14.59893768,"ECCENTRICITY":0.0026627,"INCLINATION":74.0205,"RA_OF_ASC_NODE":262.1299,"ARG_OF_PERICENTER":22.7795,"MEAN_ANOMALY":337.4546,"EPHEMERIS_TYPE":0,"CLASSIFICATION_TYPE":"U","NORAD_CAT_ID":36539,"ELEMENT_SET_NO":999,"REV_AT_EPOCH":85117,"BSTAR":0.000655,"MEAN_MOTION_DOT":3.123e-5,"MEAN_MOTION_DDOT":0},{"OBJECT_NAME":"COSMOS 2251 DEB","OBJECT_ID":"1993-036BDA","EPOCH":"2026-03-01T22:38:07.512864","MEAN_MOTION":14.59481263,"ECCENTRICITY":0.0011153,"INCLINATION":74.0308,"RA_OF_ASC_NODE":29.5525,"ARG_OF_PERICENTER":83.2826,"MEAN_ANOMALY":276.9608,"EPHEMERIS_TYPE":0,"CLASSIFICATION_TYPE":"U","NORAD_CAT_ID":36540,"ELEMENT_SET_NO":999,"REV_AT_EPOCH":87165,"BSTAR":0.0013971,"MEAN_MOTION_DOT":6.612e-5,"MEAN_MOTION_DDOT":0},{"OBJECT_NAME":"COSMOS 2251 DEB","OBJECT_ID":"1993-036BDL","EPOCH":"2026-02-25T08:25:42.066912","MEAN_MOTION":14.27498925,"ECCENTRICITY":0.00747671,"INCLINATION":74.043,"RA_OF_ASC_NODE":57.74,"ARG_OF_PERICENTER":90.6602,"MEAN_ANOMALY":270.3114,"EPHEMERIS_TYPE":0,"CLASSIFICATION_TYPE":"U","NORAD_CAT_ID":36550,"ELEMENT_SET_NO":999,"REV_AT_EPOCH":85660,"BSTAR":0.00051319073,"MEAN_MOTION_DOT":1.274e-5,"MEAN_MOTION_DDOT":0},{"OBJECT_NAME":"COSMOS 2251 DEB","OBJECT_ID":"1993-036BDM","EPOCH":"2026-03-02T20:05:11.685984","MEAN_MOTION":15.06531399,"ECCENTRICITY":0.00424575,"INCLINATION":73.8907,"RA_OF_ASC_NODE":209.2991,"ARG_OF_PERICENTER":142.8654,"MEAN_ANOMALY":217.5486,"EPHEMERIS_TYPE":0,"CLASSIFICATION_TYPE":"U","NORAD_CAT_ID":36551,"ELEMENT_SET_NO":999,"REV_AT_EPOCH":68136,"BSTAR":0.0027029652,"MEAN_MOTION_DOT":0.00040991,"MEAN_MOTION_DDOT":0}]
