COSMOS 2251 DEB         
1 36385U 93036AZN 26061.23531989  .00011387  00000+0  14679-2 0  9999
2 36385  73.9721 358.8199 0136823 155.4351 205.3425 14.74668848862739
COSMOS 2251 DEB         
1 36420U 93036AZT 26055.92338285  .00000323  00000+0  11767-3 0  9996
2 36420  74.0380 139.1041 0018984 216.5958 264.2372 14.36981066861021
COSMOS 2251 DEB         
1 36430U 93036BAD 26043.54536314  .00000870  00000+0  34418-3 0  9990
2 36430  74.0059 356.3216 0095242 132.6405 228.2823 14.27947772654396
COSMOS 2251 DEB         
1 36437U 93036BAL 26058.84327512  .00008967  00000+0  14151-2 0  9990
2 36437  73.9386 243.2715 0020775  92.2001 268.1550 14.72362202671853
COSMOS 2251 DEB         
1 36439U 93036BAN 26061.31995188  .00000923  00000+0  87757-3 0  9995
2 36439  73.9671 269.6643 0426044 226.2068 130.3061 13.48095690596854
COSMOS 2251 DEB         
1 36441U 93036BAQ 26061.75650820  .00011967  00000+0  67127-3 0  9996
2 36441  73.8355 183.1226 0108476 266.0547  92.8237 15.08453793881711
COSMOS 2251 DEB         
1 36451U 93036BBA 26062.02866009  .00002169  00000+0  88602-3 0  9991
2 36451  73.9545 191.0672 0184715 356.8090   3.1857 14.19093887853647
COSMOS 2251 DEB         
1 36453U 93036BBC 26061.82688936  .00004564  00000+0  10673-2 0  9994
2 36453  73.9271   0.2290 0072175 246.1789 143.6734 14.53346056856312
COSMOS 2251 DEB         
1 36459U 93036BBJ 26057.13961792  .00003257  00000+0  12580-2 0  9990
2 36459  74.0464 223.5036 0115154 301.5673  57.4272 14.26981616 89577
COSMOS 2251 DEB         
1 36470U 93036BBV 26058.76177771  .00071068  00000+0  34538-2 0  9991
2 36470  73.8349  92.9986 0028034 278.5786  81.2232 15.17732907672587
COSMOS 2251 DEB         
1 36528U 93036BCN 26047.60264214  .00001435  00000+0  53556-3 0  9998
2 36528  74.0163  25.1656 0082039  57.9736 302.9350 14.30929428653694
COSMOS 2251 DEB         
1 36533U 93036BCT 26062.15705635  .00001638  00000+0  42312-3 0  9991
2 36533  74.0130 323.5926 0046908  93.4986 267.1542 14.50120676856506
COSMOS 2251 DEB         
1 36539U 93036BCZ 26061.93118048  .00003123  00000+0  65500-3 0  9993
2 36539  74.0205 262.1299 0026627  22.7795 337.4546 14.59893768851176
COSMOS 2251 DEB         
1 36540U 93036BDA 26060.94314251  .00006612  00000+0  13971-2 0  9999
2 36540  74.0308  29.5525 0011153  83.2826 276.9608 14.59481263871658
COSMOS 2251 DEB         
1 36550U 93036BDL 26056.35118133  .00001274  00000+0  51319-3 0  9999
2 36550  74.0430  57.7400 0074767  90.6602 270.3114 14.27498925856600
COSMOS 2251 DEB         
1 36551U 93036BDM 26061.83694081  .00040991  00000+0  27030-2 0  9991
2 36551  73.8907 209.2991 0042457 142.8654 217.5486 15.06531399681369
